{
  "last_updated": "2026-01-18T06:00:02.669312",
  "satellites": {
    "98592": {
      "name": "DUTHSat-2",
      "norad_id": "98592",
      "tle": "1 64530U 25135C   26017.86109060  .00012430  00000-0  53901-3 0  9991\n2 64530  97.4491 134.4513 0004999   7.3437 352.7871 15.22492129 32027",
      "epoch": "2026-01-17T20:39:58.227840",
      "fetched_at": "2026-01-18T06:00:02.783772",
      "source": "satnogs"
    },
    "98530": {
      "name": "LAMARR",
      "norad_id": "98530",
      "tle": "1 66673U 25276H   26017.68237910  .00017523  00000-0  86105-3 0  9993\n2 66673  97.4333  93.7691 0007067 171.9659 188.1690 15.18087599  7577",
      "epoch": "2026-01-17T16:22:37.554240",
      "fetched_at": "2026-01-18T06:00:02.832732",
      "source": "satnogs"
    },
    "98529": {
      "name": "DIRAC",
      "norad_id": "98529",
      "tle": "1 66681U 25276R   26017.93578941  .00016110  00000-0  78343-3 0  9998\n2 66681  97.4307  94.0241 0006067 175.1653 184.9641 15.18475968  7617",
      "epoch": "2026-01-17T22:27:32.205024",
      "fetched_at": "2026-01-18T06:00:02.876563",
      "source": "satnogs"
    },
    "98518": {
      "name": "MICE-1",
      "norad_id": "98518",
      "tle": "1 66684U 25276U   26017.94342197  .00004205  00000-0  21183-3 0  9996\n2 66684  97.4443  94.1034 0006529 146.3864 213.7785 15.17700671  7610",
      "epoch": "2026-01-17T22:38:31.658208",
      "fetched_at": "2026-01-18T06:00:02.920088",
      "source": "satnogs"
    }
  },
  "fetch_log": [
    {
      "norad_id": "98592",
      "name": "DUTHSat-2",
      "status": "success",
      "source": "satnogs",
      "timestamp": "2026-01-18T06:00:02.783775"
    },
    {
      "norad_id": "98530",
      "name": "LAMARR",
      "status": "success",
      "source": "satnogs",
      "timestamp": "2026-01-18T06:00:02.832735"
    },
    {
      "norad_id": "98529",
      "name": "DIRAC",
      "status": "success",
      "source": "satnogs",
      "timestamp": "2026-01-18T06:00:02.876566"
    },
    {
      "norad_id": "98518",
      "name": "MICE-1",
      "status": "success",
      "source": "satnogs",
      "timestamp": "2026-01-18T06:00:02.920091"
    }
  ]
}